[{"OBJECT_NAME":"JILIN-1 06","OBJECT_ID":"2017-074C","EPOCH":"2026-03-09T22:46:57.173376","MEAN_MOTION":15.32444387,"ECCENTRICITY":0.00061285,"INCLINATION":97.4715,"RA_OF_ASC_NODE":171.0354,"ARG_OF_PERICENTER":223.0031,"MEAN_ANOMALY":137.0732,"EPHEMERIS_TYPE":0,"CLASSIFICATION_TYPE":"U","NORAD_CAT_ID":43024,"ELEMENT_SET_NO":999,"REV_AT_EPOCH":45863,"BSTAR":0.00028431628,"MEAN_MOTION_DOT":8.833e-5,"MEAN_MOTION_DDOT":0},{"OBJECT_NAME":"STARLINK-35345","OBJECT_ID":"2025-221L","EPOCH":"2026-03-09T08:26:54.615264","MEAN_MOTION":15.30204197,"ECCENTRICITY":0.00012905,"INCLINATION":53.1584,"RA_OF_ASC_NODE":89.7746,"ARG_OF_PERICENTER":88.4744,"MEAN_ANOMALY":271.6405,"EPHEMERIS_TYPE":0,"CLASSIFICATION_TYPE":"U","NORAD_CAT_ID":65833,"ELEMENT_SET_NO":999,"REV_AT_EPOCH":2603,"BSTAR":0.001009766,"MEAN_MOTION_DOT":0.00029671,"MEAN_MOTION_DDOT":0}]
